{
    "links": {
        "self": "http://www.neowsapp.com/rest/v1/neo/3797475?api_key=iIulBulltgU6a56xZRHN4H3l9WmuAYTsLGpBGhQ2"
    },
    "id": "3797475",
    "neo_reference_id": "3797475",
    "name": "(2018 AE3)",
    "designation": "2018 AE3",
    "nasa_jpl_url": "http://ssd.jpl.nasa.gov/sbdb.cgi?sstr=3797475",
    "absolute_magnitude_h": 21.4,
    "estimated_diameter": {
        "kilometers": {
            "estimated_diameter_min": 0.1394938229,
            "estimated_diameter_max": 0.3119176705
        },
        "meters": {
            "estimated_diameter_min": 139.4938229344,
            "estimated_diameter_max": 311.9176705226
        },
        "miles": {
            "estimated_diameter_min": 0.0866774163,
            "estimated_diameter_max": 0.1938165949
        },
        "feet": {
            "estimated_diameter_min": 457.6569140361,
            "estimated_diameter_max": 1023.3519701574
        }
    },
    "is_potentially_hazardous_asteroid": false,
    "close_approach_data": [
        {
            "close_approach_date": "2017-12-20",
            "close_approach_date_full": "2017-Dec-20 05:19",
            "epoch_date_close_approach": 1513747140000,
            "relative_velocity": {
                "kilometers_per_second": "13.3376503472",
                "kilometers_per_hour": "48015.5412500464",
                "miles_per_hour": "29834.9900617302"
            },
            "miss_distance": {
                "astronomical": "0.2914446144",
                "lunar": "113.3719550016",
                "kilometers": "43599493.537211328",
                "miles": "27091469.0359112064"
            },
            "orbiting_body": "Earth"
        }
    ],
    "orbital_data": {
        "orbit_id": "5",
        "orbit_determination_date": "2018-04-24 07:00:35",
        "first_observation_date": "2018-01-10",
        "last_observation_date": "2018-01-23",
        "data_arc_in_days": 13,
        "observations_used": 38,
        "orbit_uncertainty": "9",
        "minimum_orbit_intersection": ".0749023",
        "jupiter_tisserand_invariant": "3.134",
        "epoch_osculation": "2458137.5",
        "eccentricity": ".5912430879710731",
        "semi_major_axis": "2.563901465155131",
        "inclination": "12.6170244827297",
        "ascending_node_longitude": "44.69854981085484",
        "orbital_period": "1499.513647223719",
        "perihelion_distance": "1.048012445643253",
        "perihelion_argument": "21.03195780101746",
        "aphelion_distance": "4.07979048466701",
        "perihelion_time": "2458100.522330067053",
        "mean_anomaly": "8.877519187976318",
        "mean_motion": ".2400778416832174",
        "equinox": "J2000",
        "orbit_class": {
            "orbit_class_type": "AMO",
            "orbit_class_description": "Near-Earth asteroid orbits similar to that of 1221 Amor",
            "orbit_class_range": "1.017 AU < q (perihelion) < 1.3 AU"
        }
    },
    "is_sentry_object": false
}